SL-16 R/B               
1 24298U 96051B   26166.54414770  .00000103  00000+0  82254-4 0  9997
2 24298  70.7640 328.1260 0015329 339.3566  20.6933 14.12445331535462
ORBVIEW 2 (SEASTAR)     
1 24883U 97037A   26166.48659147  .00000167  00000+0  74400-4 0  9998
2 24883  98.8685 333.4585 0003144 119.5446 240.6052 14.35552543522504
SL-16 R/B               
1 25400U 98043G   26166.46854096  .00000027  00000+0  30141-4 0  9999
2 25400  98.8363 120.6129 0010943  90.7981 269.4452 14.26068349452929
SL-16 R/B               
1 25407U 98045B   26166.54072458 -.00000246  00000+0 -10012-3 0  9990
2 25407  71.0119 335.7925 0009467 243.5326 116.4827 14.16203809440959
ISS (ZARYA)             
1 25544U 98067A   26166.51237795  .00007685  00000+0  14626-3 0  9997
2 25544  51.6337 308.3821 0004850 189.0196 171.0706 15.49243792571497
CZ-4B R/B               
1 25732U 99025C   26166.45074485  .00000048  00000+0  43534-4 0  9996
2 25732  98.6484 208.3329 0038136  64.5238  26.2800 14.18283140402024
OKEAN-O                 
1 25860U 99039A   26166.18475084  .00000508  00000+0  73267-4 0  9990
2 25860  97.9318 225.0056 0001670  73.5258 286.6137 14.80464977448812
SL-16 R/B               
1 25861U 99039B   26166.41096257  .00000419  00000+0  59766-4 0  9997
2 25861  97.9839 225.2790 0013558 303.2339  56.7573 14.81843547451335
DELTA 2 R/B             
1 25876U 99041E   26166.54747937  .00000633  00000+0  13968-3 0  9999
2 25876  51.7657 270.3469 0500849 277.1692  77.2575 14.12013801376855
HELIOS 1B               
1 25977U 99064A   26166.49750796  .00001217  00000+0  13899-3 0  9999
2 25977  98.1616  71.5884 0002478  93.6315 266.5184 14.88002633699803
TERRA                   
1 25994U 99068A   26166.51950580  .00000322  00000+0  74567-4 0  9994
2 25994  97.9457 216.1319 0001449 195.5293 270.7841 14.61101880409368
SL-16 R/B               
1 26070U 00006B   26166.51087383 -.00000136  00000+0 -44698-4 0  9993
2 26070  71.0022 252.1498 0015451  25.5316 334.6566 14.15834162362401
TITAN 4B R/B            
1 26474U 00047B   26166.47073576  .00002675  00000+0  16785-3 0  9993
2 26474  67.9879 125.4044 0045691 288.9464  70.6736 15.10188829407673
ENVISAT                 
1 27386U 02009A   26166.45089412  .00000062  00000+0  33820-4 0  9998
2 27386  98.3834 117.8080 0001348  88.9024  21.5001 14.39064431273236
IDEFIX & ARIANE 42P R/B 
1 27422U 02021B   26166.45155764  .00000163  00000+0  78517-4 0  9991
2 27422  98.5943 103.9534 0010569 259.6189 100.3802 14.31081321258006
AQUA                    
1 27424U 02022A   26166.48950925  .00000648  00000+0  13866-3 0  9992
2 27424  98.4276 135.7384 0001166  53.3864  56.6507 14.62155771283024
CZ-4B R/B               
1 27432U 02024C   26166.39153404  .00000044  00000+0  45348-4 0  9991
2 27432  98.8701 219.2235 0051197 105.2219 266.2678 14.14564117243055
MIDORI II (ADEOS-II)    
1 27597U 02056A   26166.45802670  .00000200  00000+0  96402-4 0  9992
2 27597  98.7878 125.7031 0002220  79.4956 280.6475 14.29348747224261
H-2A R/B                
1 27601U 02056E   26166.48607597  .00000144  00000+0  65202-4 0  9993
2 27601  98.3311 123.2225 0069111 229.7060 240.4324 14.33821348228125
CZ-4B R/B               
1 28059U 03049C   26166.51214215  .00000241  00000+0  67076-4 0  9998
2 28059  98.6896 165.2920 0047010 293.8381  65.7892 14.55099186200820
CZ-2C R/B               
1 28222U 04012C   26166.19535017  .00083953  00000+0  47830-3 0  9997
2 28222  97.7094 241.6267 0009181 291.9610  68.0680 15.78647090219589
SL-16 R/B               
1 28353U 04021B   26166.32277089 -.00000267  00000+0 -11416-3 0  9999
2 28353  71.0010  27.6024 0007346 257.1070 102.9232 14.14609143136647
CZ-4B R/B               
1 28415U 04035C   26166.36748387  .00006596  00000+0  22251-3 0  9999
2 28415  97.3363 199.4614 0030085 344.6650  15.3676 15.30603692194840
CZ-2C R/B               
1 28480U 04046B   26166.50870102  .00000061  00000+0  38071-4 0  9999
2 28480  98.1947  75.3944 0138408 225.2654 133.7195 14.27026157122452
ARIANE 5 R/B            
1 28499U 04049H   26166.44624441  .00000557  00000+0  67697-4 0  9994
2 28499  98.2719 338.6320 0084618  35.0210 325.6528 14.85446882160304
CZ-2D R/B               
1 28738U 05024B   26166.49783757  .00048917  00000+0  41728-3 0  9993
2 28738  97.3477 185.8423 0003656  58.3529 301.8089 15.69388180155076
ALOS (DAICHI)           
1 28931U 06002A   26166.45694277  .00000889  00000+0  15631-3 0  9999
2 28931  98.1323 122.0297 0001524  58.2698 301.8656 14.70047041 87848
H-2A R/B                
1 28932U 06002B   26166.40665881  .00005153  00000+0  24923-3 0  9997
2 28932  98.2557 322.0742 0049561 268.5345  91.0209 15.18040833109251
RESURS-DK 1             
1 29228U 06021A   26166.51498462  .00002198  00000+0  12951-3 0  9992
2 29228  69.9340 343.8813 0006860 293.1585  66.8858 15.13212840102325
CZ-4B R/B               
1 29507U 06046C   26166.07724283  .00003856  00000+0  19206-3 0  9995
2 29507  97.5453 210.6906 0031028 290.4150  69.3752 15.17770657 74815
CZ-2C R/B               
1 31114U 07010B   26166.29871491  .00000062  00000+0  47363-4 0  9994
2 31114  98.4096 274.7419 0059135  11.6203 348.6324 14.20275848993572
